{
  "norad_id": 49175,
  "name": "STARLINK-3087",
  "history": [
    {
      "epoch": "2026-03-28T18:38:30.316128Z",
      "apogee_km": 576.7017707687055,
      "perigee_km": 572.3938872486524,
      "latitude_deg": 3.73719523097536e-05,
      "longitude_deg": 121.49047079724271,
      "height_km": 576.9860313782953,
      "semi_major_axis_km": 6952.684829008679,
      "eccentricity": 0.0003098,
      "inclination_deg": 70.0002,
      "raan_deg": 227.3091,
      "arg_perigee_deg": 269.6939,
      "mean_anomaly_deg": 90.3865,
      "mean_motion_rev_day": 14.97524539
    }
  ]
}